[{"OBJECT_NAME":"NANOSATC-BR1","OBJECT_ID":"2014-033Q","EPOCH":"2026-03-09T23:35:03.168384","MEAN_MOTION":15.28136801,"ECCENTRICITY":0.00046435,"INCLINATION":98.0845,"RA_OF_ASC_NODE":92.7804,"ARG_OF_PERICENTER":147.6715,"MEAN_ANOMALY":212.4808,"EPHEMERIS_TYPE":0,"CLASSIFICATION_TYPE":"U","NORAD_CAT_ID":40024,"ELEMENT_SET_NO":999,"REV_AT_EPOCH":63881,"BSTAR":0.00074295057,"MEAN_MOTION_DOT":0.00020336,"MEAN_MOTION_DDOT":0},{"OBJECT_NAME":"STARLINK-33646","OBJECT_ID":"2025-053R","EPOCH":"2026-03-09T11:28:34.476384","MEAN_MOTION":15.27602226,"ECCENTRICITY":0.00010184,"INCLINATION":42.9971,"RA_OF_ASC_NODE":242.7529,"ARG_OF_PERICENTER":236.3749,"MEAN_ANOMALY":123.7006,"EPHEMERIS_TYPE":0,"CLASSIFICATION_TYPE":"U","NORAD_CAT_ID":63280,"ELEMENT_SET_NO":999,"REV_AT_EPOCH":5616,"BSTAR":0.0011436061,"MEAN_MOTION_DOT":0.00031363,"MEAN_MOTION_DDOT":0}]
